STARLINK-1476_new
1 15753C 20038Z   21326.14567405 -.00012725  00000-0 -85262-3 0  3262
2 15753  53.0554  58.0937 0001350  80.0042 332.7411 15.06410566    19
STARLINK-1476_old
1 25753C 20038Z   21325.18041324  .00006843  00000-0  45841-3 0  3252
2 25753  53.0550  62.4268 0001300  82.2859 132.8943 15.06397364    15
